{
  "type": "FeatureCollection",
  "features": [
    {
      "type": "Feature",
      "properties": {
        "norad_id": 43706,
        "name": "BEIDOU-3 M17 (C36)",
        "group": "beidou",
        "lat": 53.114828759285324,
        "lon": -66.1875214452177,
        "alt_km": 21536.918547214875,
        "timestamp": "2025-12-25T11:37:44.700830+00:00",
        "meta_object_name": "BEIDOU-3 M17 (C36)",
        "meta_object_id": "2018-093A",
        "meta_epoch": "2025-12-25T01:59:52.471680",
        "meta_mean_motion": 1.86228331,
        "meta_eccentricity": 0.0006014,
        "meta_inclination": 54.1734,
        "meta_ra_of_asc_node": 188.2028,
        "meta_arg_of_pericenter": 307.2012,
        "meta_mean_anomaly": 243.0238,
        "meta_ephemeris_type": 0,
        "meta_classification_type": "U",
        "meta_norad_cat_id": 43706,
        "meta_element_set_no": 999,
        "meta_rev_at_epoch": 4829,
        "meta_bstar": 0,
        "meta_mean_motion_dot": 1.09e-06,
        "meta_mean_motion_ddot": 0,
        "tle_line1": "1 43706U 18093A   25359.08324620  .00000109  00000+0  00000+0 0  9998",
        "tle_line2": "2 43706  54.1734 188.2028 0006014 307.2012 243.0238  1.86228331 48290"
      },
      "geometry": {
        "type": "Point",
        "coordinates": [
          -66.1875214452177,
          53.114828759285324
        ]
      }
    },
    {
      "type": "Feature",
      "properties": {
        "norad_id": 43707,
        "name": "BEIDOU-3 M18 (C37)",
        "group": "beidou",
        "lat": -9.76167220911405,
        "lon": 15.325713582589337,
        "alt_km": 21546.305901176653,
        "timestamp": "2025-12-25T11:37:44.700841+00:00",
        "meta_object_name": "BEIDOU-3 M18 (C37)",
        "meta_object_id": "2018-093B",
        "meta_epoch": "2025-12-23T01:12:21.238848",
        "meta_mean_motion": 1.86226616,
        "meta_eccentricity": 0.0006147,
        "meta_inclination": 54.1741,
        "meta_ra_of_asc_node": 188.2636,
        "meta_arg_of_pericenter": 354.1254,
        "meta_mean_anomaly": 5.9078,
        "meta_ephemeris_type": 0,
        "meta_classification_type": "U",
        "meta_norad_cat_id": 43707,
        "meta_element_set_no": 999,
        "meta_rev_at_epoch": 4825,
        "meta_bstar": 0,
        "meta_mean_motion_dot": 9.6e-07,
        "meta_mean_motion_ddot": 0,
        "tle_line1": "1 43707U 18093B   25357.05024582  .00000096  00000+0  00000+0 0  9993",
        "tle_line2": "2 43707  54.1741 188.2636 0006147 354.1254   5.9078  1.86226616 48257"
      },
      "geometry": {
        "type": "Point",
        "coordinates": [
          15.325713582589337,
          -9.76167220911405
        ]
      }
    },
    {
      "type": "Feature",
      "properties": {
        "norad_id": 44231,
        "name": "BEIDOU-2 G8 (C01)",
        "group": "beidou",
        "lat": -0.6064759034030116,
        "lon": 53.291053264109564,
        "alt_km": 35779.154563159536,
        "timestamp": "2025-12-25T11:37:44.700852+00:00",
        "meta_object_name": "BEIDOU-2 G8 (C01)",
        "meta_object_id": "2019-027A",
        "meta_epoch": "2025-12-25T00:03:30.600000",
        "meta_mean_motion": 1.00274531,
        "meta_eccentricity": 0.0008295,
        "meta_inclination": 1.691,
        "meta_ra_of_asc_node": 74.7363,
        "meta_arg_of_pericenter": 259.0794,
        "meta_mean_anomaly": 265.3408,
        "meta_ephemeris_type": 0,
        "meta_classification_type": "U",
        "meta_norad_cat_id": 44231,
        "meta_element_set_no": 999,
        "meta_rev_at_epoch": 2433,
        "meta_bstar": 0,
        "meta_mean_motion_dot": -2.26e-06,
        "meta_mean_motion_ddot": 0,
        "tle_line1": "1 44231U 19027A   25359.00243750 -.00000226  00000+0  00000+0 0  9997",
        "tle_line2": "2 44231   1.6910  74.7363 0008295 259.0794 265.3408  1.00274531 24336"
      },
      "geometry": {
        "type": "Point",
        "coordinates": [
          53.291053264109564,
          -0.6064759034030116
        ]
      }
    },
    {
      "type": "Feature",
      "properties": {
        "norad_id": 44337,
        "name": "BEIDOU-3 IGSO-2 (C39)",
        "group": "beidou",
        "lat": -37.50700805729836,
        "lon": 12.621549043622144,
        "alt_km": 35648.26998185902,
        "timestamp": "2025-12-25T11:37:44.700863+00:00",
        "meta_object_name": "BEIDOU-3 IGSO-2 (C39)",
        "meta_object_id": "2019-035A",
        "meta_epoch": "2025-12-24T20:30:50.966784",
        "meta_mean_motion": 1.00267539,
        "meta_eccentricity": 0.00378522,
        "meta_inclination": 55.2292,
        "meta_ra_of_asc_node": 160.3949,
        "meta_arg_of_pericenter": 202.5754,
        "meta_mean_anomaly": 157.6854,
        "meta_ephemeris_type": 0,
        "meta_classification_type": "U",
        "meta_norad_cat_id": 44337,
        "meta_element_set_no": 999,
        "meta_rev_at_epoch": 2392,
        "meta_bstar": 0,
        "meta_mean_motion_dot": -7e-07,
        "meta_mean_motion_ddot": 0,
        "tle_line1": "1 44337U 19035A   25358.85475656 -.00000070  00000+0  00000+0 0  9994",
        "tle_line2": "2 44337  55.2292 160.3949 0037852 202.5754 157.6854  1.00267539 23925"
      },
      "geometry": {
        "type": "Point",
        "coordinates": [
          12.621549043622144,
          -37.50700805729836
        ]
      }
    },
    {
      "type": "Feature",
      "properties": {
        "norad_id": 44542,
        "name": "BEIDOU-3 M24 (C46)",
        "group": "beidou",
        "lat": 27.996431377940844,
        "lon": -13.807441406656569,
        "alt_km": 21537.49216925521,
        "timestamp": "2025-12-25T11:37:44.700875+00:00",
        "meta_object_name": "BEIDOU-3 M24 (C46)",
        "meta_object_id": "2019-061A",
        "meta_epoch": "2025-12-24T17:34:06.027744",
        "meta_mean_motion": 1.86229347,
        "meta_eccentricity": 0.0009575,
        "meta_inclination": 54.4007,
        "meta_ra_of_asc_node": 188.6113,
        "meta_arg_of_pericenter": 26.2213,
        "meta_mean_anomaly": 333.8628,
        "meta_ephemeris_type": 0,
        "meta_classification_type": "U",
        "meta_norad_cat_id": 44542,
        "meta_element_set_no": 999,
        "meta_rev_at_epoch": 4254,
        "meta_bstar": 0,
        "meta_mean_motion_dot": 1.06e-06,
        "meta_mean_motion_ddot": 0,
        "tle_line1": "1 44542U 19061A   25358.73201421  .00000106  00000+0  00000+0 0  9994",
        "tle_line2": "2 44542  54.4007 188.6113 0009575  26.2213 333.8628  1.86229347 42541"
      },
      "geometry": {
        "type": "Point",
        "coordinates": [
          -13.807441406656569,
          27.996431377940844
        ]
      }
    },
    {
      "type": "Feature",
      "properties": {
        "norad_id": 44543,
        "name": "BEIDOU-3 M23 (C45)",
        "group": "beidou",
        "lat": 43.1628406950527,
        "lon": -129.20951194263654,
        "alt_km": 21508.746202925682,
        "timestamp": "2025-12-25T11:37:44.700886+00:00",
        "meta_object_name": "BEIDOU-3 M23 (C45)",
        "meta_object_id": "2019-061B",
        "meta_epoch": "2025-12-25T02:15:38.243232",
        "meta_mean_motion": 1.86227511,
        "meta_eccentricity": 0.0006052,
        "meta_inclination": 54.3998,
        "meta_ra_of_asc_node": 188.5674,
        "meta_arg_of_pericenter": 25.9694,
        "meta_mean_anomaly": 129.6211,
        "meta_ephemeris_type": 0,
        "meta_classification_type": "U",
        "meta_norad_cat_id": 44543,
        "meta_element_set_no": 999,
        "meta_rev_at_epoch": 4255,
        "meta_bstar": 0,
        "meta_mean_motion_dot": 1.09e-06,
        "meta_mean_motion_ddot": 0,
        "tle_line1": "1 44543U 19061B   25359.09419263  .00000109  00000+0  00000+0 0  9993",
        "tle_line2": "2 44543  54.3998 188.5674 0006052  25.9694 129.6211  1.86227511 42558"
      },
      "geometry": {
        "type": "Point",
        "coordinates": [
          -129.20951194263654,
          43.1628406950527
        ]
      }
    },
    {
      "type": "Feature",
      "properties": {
        "norad_id": 44793,
        "name": "BEIDOU-3 M22 (C44)",
        "group": "beidou",
        "lat": -50.32950365902024,
        "lon": -173.32049556778873,
        "alt_km": 21544.87626617286,
        "timestamp": "2025-12-25T11:37:44.700897+00:00",
        "meta_object_name": "BEIDOU-3 M22 (C44)",
        "meta_object_id": "2019-078A",
        "meta_epoch": "2025-12-22T23:04:03.320256",
        "meta_mean_motion": 1.86232206,
        "meta_eccentricity": 0.00060944,
        "meta_inclination": 54.0989,
        "meta_ra_of_asc_node": 306.0279,
        "meta_arg_of_pericenter": 24.0205,
        "meta_mean_anomaly": 336.0117,
        "meta_ephemeris_type": 0,
        "meta_classification_type": "U",
        "meta_norad_cat_id": 44793,
        "meta_element_set_no": 999,
        "meta_rev_at_epoch": 4136,
        "meta_bstar": 0,
        "meta_mean_motion_dot": -5.4e-07,
        "meta_mean_motion_ddot": 0,
        "tle_line1": "1 44793U 19078A   25356.96114954 -.00000054  00000+0  00000+0 0  9990",
        "tle_line2": "2 44793  54.0989 306.0279 0006094  24.0205 336.0117  1.86232206 41368"
      },
      "geometry": {
        "type": "Point",
        "coordinates": [
          -173.32049556778873,
          -50.32950365902024
        ]
      }
    }
  ]
}